start=new Date('2022-02-19T00:00:00.000Z').valueOf();
sats=[{"DECAY_DATE":null,"ARG_OF_PERICENTER":"60.6046","COUNTRY_CODE":"US","NORAD_CAT_ID":"46709","ECCENTRICITY":"0.00017870","EPHEMERIS_TYPE":"0","APOAPSIS":"548.430","OBJECT_NAME":"STARLINK-1810","TLE_LINE1":"1 46709U 20073AR  22049.42801845  .00002486  00000-0  18568-3 0  9998","BSTAR":"0.00018568000000","FILE":"3306500","CLASSIFICATION_TYPE":"U","CENTER_NAME":"EARTH","TIME_SYSTEM":"UTC","MEAN_MOTION_DDOT":"0.0000000000000","LAUNCH_DATE":"2020-10-18","ELEMENT_SET_NO":"999","PERIAPSIS":"545.955","EPOCH":"2022-02-18T10:16:20.794080","GP_ID":"196294133","REF_FRAME":"TEME","MEAN_ANOMALY":"299.5121","REV_AT_EPOCH":"7380","OBJECT_ID":"2020-073AR","TLE_LINE2":"2 46709  53.0559  61.7758 0001787  60.6046 299.5121 15.06406836 73800","INCLINATION":"53.0559","OBJECT_TYPE":"PAYLOAD","RCS_SIZE":"LARGE","SEMIMAJOR_AXIS":"6925.328","MEAN_MOTION_DOT":"0.00002486","MEAN_ELEMENT_THEORY":"SGP4","MEAN_MOTION":"15.06406836","PERIOD":"95.592","SITE":"AFETR","RA_OF_ASC_NODE":"61.7758"},{"MEAN_ANOMALY":"291.7607","REV_AT_EPOCH":"7385","OBJECT_ID":"2020-073AS","TLE_LINE2":"2 46710  53.0528  60.4424 0001926  68.3587 291.7607 15.06400681 73854","EPOCH":"2022-02-18T17:22:18.896448","REF_FRAME":"TEME","GP_ID":"196332191","PERIOD":"95.592","MEAN_MOTION":"15.06400681","SITE":"AFETR","RA_OF_ASC_NODE":"60.4424","OBJECT_TYPE":"PAYLOAD","INCLINATION":"53.0528","SEMIMAJOR_AXIS":"6925.346","RCS_SIZE":"LARGE","MEAN_ELEMENT_THEORY":"SGP4","MEAN_MOTION_DOT":"-0.00001582","FILE":"3307132","CLASSIFICATION_TYPE":"U","BSTAR":"-0.00008728600000","CENTER_NAME":"EARTH","DECAY_DATE":null,"ARG_OF_PERICENTER":"68.3587","EPHEMERIS_TYPE":"0","COUNTRY_CODE":"US","ECCENTRICITY":"0.00019260","NORAD_CAT_ID":"46710","APOAPSIS":"548.545","TLE_LINE1":"1 46710U 20073AS  22049.72382982 -.00001582  00000-0 -87286-4 0  9991","OBJECT_NAME":"STARLINK-1811","ELEMENT_SET_NO":"999","PERIAPSIS":"545.878","TIME_SYSTEM":"UTC","MEAN_MOTION_DDOT":"0.0000000000000","LAUNCH_DATE":"2020-10-18"},{"LAUNCH_DATE":"2020-10-18","MEAN_MOTION_DDOT":"0.0000000000000","TIME_SYSTEM":"UTC","PERIAPSIS":"545.924","ELEMENT_SET_NO":"999","TLE_LINE1":"1 46711U 20073AT  22049.69757557 -.00000267  00000-0  10065-5 0  9992","OBJECT_NAME":"STARLINK-1813","APOAPSIS":"548.452","EPHEMERIS_TYPE":"0","COUNTRY_CODE":"US","NORAD_CAT_ID":"46711","ECCENTRICITY":"0.00018250","DECAY_DATE":null,"ARG_OF_PERICENTER":"60.1370","CENTER_NAME":"EARTH","CLASSIFICATION_TYPE":"U","FILE":"3307132","BSTAR":"0.00000100650000","MEAN_MOTION_DOT":"-0.00000267","MEAN_ELEMENT_THEORY":"SGP4","SEMIMAJOR_AXIS":"6925.323","RCS_SIZE":"LARGE","OBJECT_TYPE":"PAYLOAD","INCLINATION":"53.0559","RA_OF_ASC_NODE":"45.5667","SITE":"AFETR","PERIOD":"95.592","MEAN_MOTION":"15.06408443","REF_FRAME":"TEME","GP_ID":"196332441","EPOCH":"2022-02-18T16:44:30.529248","TLE_LINE2":"2 46711  53.0559  45.5667 0001825  60.1370 299.9800 15.06408443 74063","OBJECT_ID":"2020-073AT","REV_AT_EPOCH":"7406","MEAN_ANOMALY":"299.9800"},{"OBJECT_ID":"2020-073AU","MEAN_ANOMALY":"301.8826","REV_AT_EPOCH":"7402","TLE_LINE2":"2 46712  53.0530  46.6108 0001650  58.2323 301.8826 15.06407675 74020","EPOCH":"2022-02-18T11:08:45.379104","GP_ID":"196293883","REF_FRAME":"TEME","MEAN_MOTION":"15.06407675","PERIOD":"95.592","RA_OF_ASC_NODE":"46.6108","SITE":"AFETR","RCS_SIZE":"LARGE","SEMIMAJOR_AXIS":"6925.325","INCLINATION":"53.0530","OBJECT_TYPE":"PAYLOAD","MEAN_ELEMENT_THEORY":"SGP4","MEAN_MOTION_DOT":"0.00002712","CENTER_NAME":"EARTH","FILE":"3306500","BSTAR":"0.00020084000000","CLASSIFICATION_TYPE":"U","ECCENTRICITY":"0.00016500","COUNTRY_CODE":"US","NORAD_CAT_ID":"46712","EPHEMERIS_TYPE":"0","DECAY_DATE":null,"ARG_OF_PERICENTER":"58.2323","OBJECT_NAME":"STARLINK-1814","TLE_LINE1":"1 46712U 20073AU  22049.46441411  .00002712  00000-0  20084-3 0  9993","APOAPSIS":"548.333","ELEMENT_SET_NO":"999","PERIAPSIS":"546.047","TIME_SYSTEM":"UTC","LAUNCH_DATE":"2020-10-18","MEAN_MOTION_DDOT":"0.0000000000000"},{"EPOCH":"2022-02-18T16:12:39.310272","GP_ID":"196333440","REF_FRAME":"TEME","OBJECT_ID":"2020-073AV","REV_AT_EPOCH":"7405","MEAN_ANOMALY":"307.2271","TLE_LINE2":"2 46713  53.0530  45.6617 0001859  52.8888 307.2271 15.06397498 74050","RCS_SIZE":"LARGE","SEMIMAJOR_AXIS":"6925.356","INCLINATION":"53.0530","OBJECT_TYPE":"PAYLOAD","MEAN_MOTION_DOT":"0.00000695","MEAN_ELEMENT_THEORY":"SGP4","MEAN_MOTION":"15.06397498","PERIOD":"95.592","RA_OF_ASC_NODE":"45.6617","SITE":"AFETR","COUNTRY_CODE":"US","NORAD_CAT_ID":"46713","ECCENTRICITY":"0.00018590","EPHEMERIS_TYPE":"0","DECAY_DATE":null,"ARG_OF_PERICENTER":"52.8888","OBJECT_NAME":"STARLINK-1815","TLE_LINE1":"1 46713U 20073AV  22049.67545498  .00000695  00000-0  65562-4 0  9996","APOAPSIS":"548.509","CENTER_NAME":"EARTH","CLASSIFICATION_TYPE":"U","FILE":"3307132","BSTAR":"0.00006556200000","TIME_SYSTEM":"UTC","LAUNCH_DATE":"2020-10-18","MEAN_MOTION_DDOT":"0.0000000000000","ELEMENT_SET_NO":"999","PERIAPSIS":"545.934"},{"MEAN_MOTION_DOT":"0.00002032","MEAN_ELEMENT_THEORY":"SGP4","RCS_SIZE":"LARGE","SEMIMAJOR_AXIS":"6925.341","INCLINATION":"53.0556","OBJECT_TYPE":"PAYLOAD","RA_OF_ASC_NODE":"46.6119","SITE":"AFETR","MEAN_MOTION":"15.06402538","PERIOD":"95.592","REF_FRAME":"TEME","GP_ID":"196292882","EPOCH":"2022-02-18T11:10:07.204224","TLE_LINE2":"2 46714  53.0556  46.6119 0001812  63.4745 296.6429 15.06402538 74021","OBJECT_ID":"2020-073AW","REV_AT_EPOCH":"7402","MEAN_ANOMALY":"296.6429","LAUNCH_DATE":"2020-10-18","MEAN_MOTION_DDOT":"0.0000000000000","TIME_SYSTEM":"UTC","PERIAPSIS":"545.951","ELEMENT_SET_NO":"999","OBJECT_NAME":"STARLINK-1816","TLE_LINE1":"1 46714U 20073AW  22049.46536116  .00002032  00000-0  15528-3 0  9994","APOAPSIS":"548.461","NORAD_CAT_ID":"46714","COUNTRY_CODE":"US","ECCENTRICITY":"0.00018120","EPHEMERIS_TYPE":"0","ARG_OF_PERICENTER":"63.4745","DECAY_DATE":null,"CENTER_NAME":"EARTH","BSTAR":"0.00015528000000","FILE":"3306500","CLASSIFICATION_TYPE":"U"},{"MEAN_MOTION":"15.06415283","PERIOD":"95.591","RA_OF_ASC_NODE":"46.9228","SITE":"AFETR","RCS_SIZE":"LARGE","SEMIMAJOR_AXIS":"6925.302","INCLINATION":"53.0544","OBJECT_TYPE":"PAYLOAD","MEAN_ELEMENT_THEORY":"SGP4","MEAN_MOTION_DOT":"0.00007984","OBJECT_ID":"2020-073AX","MEAN_ANOMALY":"303.8670","REV_AT_EPOCH":"7401","TLE_LINE2":"2 46715  53.0544  46.9228 0001833  56.2493 303.8670 15.06415283 74015","EPOCH":"2022-02-18T09:29:15.861408","REF_FRAME":"TEME","GP_ID":"196293132","ELEMENT_SET_NO":"999","PERIAPSIS":"545.897","TIME_SYSTEM":"UTC","LAUNCH_DATE":"2020-10-18","MEAN_MOTION_DDOT":"0.0000000000000","CENTER_NAME":"EARTH","FILE":"3306500","BSTAR":"0.00055404000000","CLASSIFICATION_TYPE":"U","COUNTRY_CODE":"US","ECCENTRICITY":"0.00018330","NORAD_CAT_ID":"46715","EPHEMERIS_TYPE":"0","DECAY_DATE":null,"ARG_OF_PERICENTER":"56.2493","OBJECT_NAME":"STARLINK-1817","TLE_LINE1":"1 46715U 20073AX  22049.39532247  .00007984  00000-0  55404-3 0  9996","APOAPSIS":"548.436"},{"SEMIMAJOR_AXIS":"6925.305","RCS_SIZE":"LARGE","OBJECT_TYPE":"PAYLOAD","INCLINATION":"53.0541","MEAN_ELEMENT_THEORY":"SGP4","MEAN_MOTION_DOT":"0.00006193","PERIOD":"95.591","MEAN_MOTION":"15.06414214","RA_OF_ASC_NODE":"60.3741","SITE":"AFETR","EPOCH":"2022-02-18T17:48:51.312384","REF_FRAME":"TEME","GP_ID":"196333193","OBJECT_ID":"2020-073AY","MEAN_ANOMALY":"296.5071","REV_AT_EPOCH":"7385","TLE_LINE2":"2 46716  53.0541  60.3741 0001633  63.6085 296.5071 15.06414214 73857","TIME_SYSTEM":"UTC","LAUNCH_DATE":"2020-10-18","MEAN_MOTION_DDOT":"0.0000000000000","ELEMENT_SET_NO":"999","PERIAPSIS":"546.039","EPHEMERIS_TYPE":"0","NORAD_CAT_ID":"46716","COUNTRY_CODE":"US","ECCENTRICITY":"0.00016330","DECAY_DATE":null,"ARG_OF_PERICENTER":"63.6085","TLE_LINE1":"1 46716U 20073AY  22049.74226056  .00006193  00000-0  43413-3 0  9992","OBJECT_NAME":"STARLINK-1818","APOAPSIS":"548.301","CENTER_NAME":"EARTH","BSTAR":"0.00043413000000","FILE":"3307132","CLASSIFICATION_TYPE":"U"},{"FILE":"3307132","CLASSIFICATION_TYPE":"U","BSTAR":"0.00008938800000","CENTER_NAME":"EARTH","DECAY_DATE":null,"ARG_OF_PERICENTER":"64.8978","EPHEMERIS_TYPE":"0","NORAD_CAT_ID":"46717","COUNTRY_CODE":"US","ECCENTRICITY":"0.00015200","APOAPSIS":"548.248","TLE_LINE1":"1 46717U 20073AZ  22049.67913265  .00001050  00000-0  89388-4 0  9999","OBJECT_NAME":"STARLINK-1820","ELEMENT_SET_NO":"999","PERIAPSIS":"546.142","TIME_SYSTEM":"UTC","MEAN_MOTION_DDOT":"0.0000000000000","LAUNCH_DATE":"2020-10-18","MEAN_ANOMALY":"295.2169","REV_AT_EPOCH":"7405","OBJECT_ID":"2020-073AZ","TLE_LINE2":"2 46717  53.0559  45.6389 0001520  64.8978 295.2169 15.06406009 74050","EPOCH":"2022-02-18T16:17:57.060960","REF_FRAME":"TEME","GP_ID":"196333940","PERIOD":"95.592","MEAN_MOTION":"15.06406009","SITE":"AFETR","RA_OF_ASC_NODE":"45.6389","OBJECT_TYPE":"PAYLOAD","INCLINATION":"53.0559","SEMIMAJOR_AXIS":"6925.330","RCS_SIZE":"LARGE","MEAN_ELEMENT_THEORY":"SGP4","MEAN_MOTION_DOT":"0.00001050"},{"MEAN_MOTION_DOT":"0.00000014","MEAN_ELEMENT_THEORY":"SGP4","SEMIMAJOR_AXIS":"6925.363","RCS_SIZE":"LARGE","OBJECT_TYPE":"PAYLOAD","INCLINATION":"53.0526","RA_OF_ASC_NODE":"61.3543","SITE":"AFETR","PERIOD":"95.592","MEAN_MOTION":"15.06395407","REF_FRAME":"TEME","GP_ID":"196332192","EPOCH":"2022-02-18T12:30:24.356736","TLE_LINE2":"2 46718  53.0526  61.3543 0001754  56.0035 304.1120 15.06395407 73828","OBJECT_ID":"2020-073BA","MEAN_ANOMALY":"304.1120","REV_AT_EPOCH":"7382","LAUNCH_DATE":"2020-10-18","MEAN_MOTION_DDOT":"0.0000000000000","TIME_SYSTEM":"UTC","PERIAPSIS":"546.013","ELEMENT_SET_NO":"999","TLE_LINE1":"1 46718U 20073BA  22049.52111524  .00000014  00000-0  19843-4 0  9990","OBJECT_NAME":"STARLINK-1821","APOAPSIS":"548.442","EPHEMERIS_TYPE":"0","COUNTRY_CODE":"US","ECCENTRICITY":"0.00017540","NORAD_CAT_ID":"46718","DECAY_DATE":null,"ARG_OF_PERICENTER":"56.0035","CENTER_NAME":"EARTH","FILE":"3307132","BSTAR":"0.00001984300000","CLASSIFICATION_TYPE":"U"}];
